OBJECT_NAME,OBJECT_ID,EPOCH,MEAN_MOTION,ECCENTRICITY,INCLINATION,RA_OF_ASC_NODE,ARG_OF_PERICENTER,MEAN_ANOMALY,EPHEMERIS_TYPE,CLASSIFICATION_TYPE,NORAD_CAT_ID,ELEMENT_SET_NO,REV_AT_EPOCH,BSTAR,MEAN_MOTION_DOT,MEAN_MOTION_DDOT
GLOBALSTAR M069,2007-020C,2026-06-18T11:41:44.562048,12.23471381,.0002314,52.0023,248.4472,150.6920,222.3322,0,U,31573,999,87896,.29785E-3,-.6E-6,0
GLOBALSTAR M072,2007-020D,2026-06-18T12:04:17.774400,11.91658343,.0001429,51.9933,96.7421,335.6985,196.1488,0,U,31574,999,87513,-.20086E-3,-.99E-6,0
GLOBALSTAR M066,2007-048C,2026-06-18T01:40:46.200288,12.30387558,.000551,51.9605,55.3781,45.9123,100.0309,0,U,32265,999,86033,-.37741075E-3,-.139E-5,0
GLOBALSTAR M079,2010-054A,2026-06-18T14:03:12.226752,12.62266106,.0000751,52.0035,104.4123,27.5603,142.6884,0,U,37188,999,72272,.38014E-4,-.97E-6,0
GLOBALSTAR M074,2010-054B,2026-06-18T12:47:25.743840,12.62268399,.0000565,52.0011,103.8370,52.2129,119.0464,0,U,37189,999,72332,.12807E-4,-.101E-5,0
GLOBALSTAR M076,2010-054C,2026-06-18T13:25:17.332896,12.62261834,.0000761,52.0023,103.9603,45.0201,125.8107,0,U,37190,999,72304,.10261E-4,-.102E-5,0
GLOBALSTAR M077,2010-054D,2026-06-18T12:27:08.955360,11.67547804,.0002706,51.9919,175.9158,174.8445,358.2413,0,U,37191,999,72129,-.27209E-3,-.93E-6,0
GLOBALSTAR M075,2010-054E,2026-06-18T15:37:56.100864,12.62267354,.0000208,51.9923,145.7340,23.5628,145.9952,0,U,37192,999,72212,-.90478E-4,-.12E-5,0
GLOBALSTAR M073,2010-054F,2026-06-18T09:56:46.499712,12.62266509,.0000956,52.0068,60.5565,50.6685,120.2585,0,U,37193,999,72408,.1679E-3,-.74E-6,0
GLOBALSTAR M083,2011-033A,2026-06-18T00:41:59.299584,12.62263147,.00009393,51.9875,9.9569,68.0668,92.7460,0,U,37739,999,69305,.78529896E-4,-.9E-6,0
GLOBALSTAR M088,2011-033B,2026-06-18T17:11:50.077248,12.62268816,.0000673,52.0218,274.2969,129.3859,34.9270,0,U,37740,999,68868,.15234E-3,-.76E-6,0
GLOBALSTAR M091,2011-033C,2026-06-18T11:00:34.036128,12.62264027,.0000274,51.9989,238.0451,155.7412,217.3661,0,U,37741,999,68944,.11911E-3,-.82E-6,0
GLOBALSTAR M085,2011-033D,2026-06-18T11:29:20.817024,12.62264172,.0000139,52.0097,189.2762,305.9811,218.0733,0,U,37742,999,68995,-.34699E-4,-.11E-5,0
GLOBALSTAR M081,2011-033E,2026-06-18T07:31:35.816736,12.62265121,.0000106,51.9932,192.2140,88.4525,284.6275,0,U,37743,999,69008,.99747E-5,-.102E-5,0
GLOBALSTAR M089,2011-033F,2026-06-18T16:54:36.518112,12.62267242,.0000376,51.9908,145.1809,81.7259,89.7801,0,U,37744,999,69097,-.53179E-4,-.113E-5,0
GLOBALSTAR M084,2011-080A,2026-06-18T12:36:34.989408,12.62267565,.0001096,52.0027,13.2082,87.8089,288.9927,0,U,38040,999,66893,.36902E-4,-.97E-6,0
GLOBALSTAR M080,2011-080B,2026-06-18T01:17:25.881792,12.62269456,.00003904,52.0078,16.3625,69.5095,93.1203,0,U,38041,999,66899,.92188326E-4,-.87E-6,0
GLOBALSTAR M082,2011-080C,2026-06-18T10:23:55.437792,12.62263723,.0000522,52.0101,330.7087,100.2463,277.7860,0,U,38042,999,66975,.11304E-3,-.84E-6,0
GLOBALSTAR M092,2011-080D,2026-06-18T10:34:43.142304,12.62267027,.0000724,52.0095,61.0822,65.0089,106.1365,0,U,38043,999,66820,.91045E-4,-.87E-6,0
GLOBALSTAR M090,2011-080E,2026-06-18T16:43:08.596992,12.62269052,.0000784,52.0141,323.8630,93.7142,280.6330,0,U,38044,999,66990,.22691E-4,-.1E-5,0
GLOBALSTAR M086,2011-080F,2026-06-18T17:14:00.886848,12.62286778,.000169,51.9916,323.7253,70.3350,302.5717,0,U,38045,999,66985,.92109E-4,-.87E-6,0
GLOBALSTAR M097,2013-005A,2026-06-18T12:13:00.464160,12.62247265,.0000265,52.0038,239.3137,127.5074,232.5817,0,U,39072,999,61707,.8359E-4,-.89E-6,0
GLOBALSTAR M093,2013-005B,2026-06-18T11:34:24.602016,12.62266006,.0000183,52.0094,232.7418,85.7273,274.3615,0,U,39073,999,61702,.93113E-4,-.87E-6,0
GLOBALSTAR M094,2013-005C,2026-06-18T15:22:18.236640,12.62268541,.000045,51.9931,146.3735,7.1136,352.9737,0,U,39074,999,61865,-.11745E-3,-.125E-5,0
GLOBALSTAR M096,2013-005D,2026-06-18T11:53:40.082784,12.62265690,.0000058,52.0046,195.6185,317.1341,42.9521,0,U,39075,999,61755,-.14039E-4,-.106E-5,0
GLOBALSTAR M078,2013-005E,2026-06-18T15:02:52.469088,12.62257758,.0000515,51.9885,279.2262,234.3680,125.7138,0,U,39076,999,61619,-.19546E-3,-.139E-5,0
GLOBALSTAR M095,2013-005F,2026-06-18T13:47:21.583104,12.62263467,.0000207,52.0090,276.9921,131.3200,228.7685,0,U,39077,999,61604,.12244E-3,-.82E-6,0
GLOBALSTAR M087,2022-064A,2026-06-18T10:18:21.919104,12.62269089,.0000779,52.0011,58.6706,41.3620,318.7305,0,U,52888,999,19129,.85278E-4,-.88E-6,0
